Restaurant_Name,Address,City,Phone,Cuisines,Ratings
arnie mortons of chicago, 435 s. la cienega blv., los angeles, 3102461501, american, 0
arnie mortons of chicago, 435 s. la cienega blvd., los angeles, 3102461501, steakhouses, 0
arts delicatessen, 12224 ventura blvd., studio city, 8187621221, american, 1
arts deli, 12224 ventura blvd., studio city, 8187621221, delis, 1
hotel belair, 701 stone canyon rd., bel air, 3104721211, californian, 2
belair hotel, 701 stone canyon rd., bel air, 3104721211, californian, 2
cafe bizou, 14016 ventura blvd., sherman oaks, 8187883536, french, 3
cafe bizou, 14016 ventura blvd., sherman oaks, 8187883536, french bistro, 3
campanile, 624 s. la brea ave., los angeles, 2139381447, american, 4
campanile, 624 s. la brea ave., los angeles, 2139381447, californian, 4
chinois on main, 2709 main st., santa monica, 3103929025, french, 5
chinois on main, 2709 main st., santa monica, 3103929025, pacific new wave, 5
citrus, 6703 melrose ave., los angeles, 2138570034, californian, 6
citrus, 6703 melrose ave., los angeles, 2138570034, californian, 6
fenix, 8358 sunset blvd. west, hollywood, 2138486677, american, 7
fenix at the argyle, 8358 sunset blvd., w. hollywood, 2138486677, french (new), 7
granita, 23725 w. malibu rd., malibu, 3104560488, californian, 8
granita, 23725 w. malibu rd., malibu, 3104560488, californian, 8
grill on the alley, 9560 dayton way, los angeles, 3102760615, american, 9
grill  the, 9560 dayton way, beverly hills, 3102760615, american (traditional), 9
restaurant katsu, 1972 n. hillhurst ave., los angeles, 2136651891, asian, 10
katsu, 1972 hillhurst ave., los feliz, 2136651891, japanese, 10
lorangerie, 903 n. la cienega blvd., los angeles, 3106529770, french, 11
lorangerie, 903 n. la cienega blvd., w. hollywood, 3106529770, french (classic), 11
le chardonnay, 8284 melrose ave., los angeles, 2136558880, french, 12
le chardonnay (los angeles), 8284 melrose ave., los angeles, 2136558880, french bistro, 12
locanda veneta, 3rd st., los angeles, 3102741893, italian, 13
locanda veneta, 8638 w. third st., los angeles, 3102741893, italian, 13
matsuhisa, 129 n. la cienega blvd., beverly hills, 3106599639, asian, 14
matsuhisa, 129 n. la cienega blvd., beverly hills, 3106599639, seafood, 14
the palm, 9001 santa monica blvd., los angeles, 3105508811, american, 15
palm  the (los angeles), 9001 santa monica blvd., w. hollywood, 3105508811, steakhouses, 15
patina, 5955 melrose ave., los angeles, 2134671108, californian, 16
patina, 5955 melrose ave., los angeles, 2134671108, californian, 16
philippes the original, 1001 n. alameda st., los angeles, 2136283781, american, 17
philippe the original, 1001 n. alameda st., chinatown, 2136283781, cafeterias, 17
pinot bistro, 12969 ventura blvd., los angeles, 8189900500, french, 18
pinot bistro, 12969 ventura blvd., studio city, 8189900500, french bistro, 18
rex il ristorante, 617 s. olive st., los angeles, 2136272300, italian, 19
rex il ristorante, 617 s. olive st., los angeles, 2136272300, nuova cucina italian, 19
spago, 1114 horn ave., los angeles, 3106524025, californian, 20
spago (los angeles), 8795 sunset blvd., w. hollywood, 3106524025, californian, 20
valentino, 3115 pico blvd., santa monica, 3108294313, italian, 21
valentino, 3115 pico blvd., santa monica, 3108294313, italian, 21
yujean kangs gourmet chinese cuisine, 67 n. raymond ave., los angeles, 8185850855, asian, 22
yujean kangs, 67 n. raymond ave., pasadena, 8185850855, chinese, 22
21 club, 21 w. 52nd st., new york, 2125827200, american, 23
21 club, 21 w. 52nd st., new york city, 2125827200, american (new), 23
aquavit, 13 w. 54th st., new york, 2123077311, continental, 24
aquavit, 13 w. 54th st., new york city, 2123077311, scandinavian, 24
aureole, 34 e. 61st st., new york, 212 3191660, american, 25
aureole, 34 e. 61st st., new york city, 2123191660, american (new), 25
cafe lalo, 201 w. 83rd st., new york, 2124966031, coffee bar, 26
cafe lalo, 201 w. 83rd st., new york city, 2124966031, coffeehouses, 26
cafe des artistes, 1 w. 67th st., new york, 2128773500, continental, 27
cafe des artistes, 1 w. 67th st., new york city, 2128773500, french (classic), 27
carmines, 2450 broadway  between 90th and 91st sts., new york, 2123622200, italian, 28
carmines, 2450 broadway, new york city, 2123622200, italian, 28
carnegie deli, 854 7th ave.  between 54th and 55th sts., new york, 2127572245, delicatessen, 29
carnegie deli, 854 seventh ave., new york city, 2127572245, delis, 29
chanterelle, 2 harrison st.  near hudson st., new york, 2129666960, american, 30
chanterelle, 2 harrison st., new york city, 2129666960, french (new), 30
daniel, 20 e. 76th st., new york, 2122880033, french, 31
daniel, 20 e. 76th st., new york city, 2122880033, french (new), 31
dawat, 210 e. 58th st., new york, 2123557555, asian, 32
dawat, 210 e. 58th st., new york city, 2123557555, indian, 32
felidia, 243 e. 58th st., new york, 2127581479, italian, 33
felidia, 243 e. 58th st., new york city, 2127581479, italian, 33
four seasons grill room, 99 e. 52nd st., new york, 2127549494, american, 34
four seasons, 99 e. 52nd st., new york city, 2127549494, american (new), 34
gotham bar & grill, 12 e. 12th st., new york, 2126204020, american, 35
gotham bar & grill, 12 e. 12th st., new york city, 2126204020, american (new), 35
gramercy tavern, 42 e. 20th st.  between park ave. s and broadway, new york, 2124770777, american, 36
gramercy tavern, 42 e. 20th st., new york city, 2124770777, american (new), 36
island spice, 402 w. 44th st., new york, 2127651737, tel caribbean, 37
island spice, 402 w. 44th st., new york city, 2127651737, caribbean, 37
jo jo, 160 e. 64th st., new york, 2122235656, american, 38
jo jo, 160 e. 64th st., new york city, 2122235656, french bistro, 38
la caravelle, 33 w. 55th st., new york, 2125864252, french, 39
la caravelle, 33 w. 55th st., new york city, 2125864252, french (classic), 39
la cote basque, 60 w. 55th st.  between 5th and 6th ave., new york, 2126886525, french, 40
la cote basque, 60 w. 55th st., new york city, 2126886525, french (classic), 40
le bernardin, 155 w. 51st st., new york, 2124891515, french, 41
le bernardin, 155 w. 51st st., new york city, 2124891515, seafood, 41
les celebrites, 160 central park s, new york, 2124845113, french, 42
les celebrites, 155 w. 58th st., new york city, 2124845113, french (classic), 42
lespinasse, 2 e. 55th st., new york, 2123396719, american, 43
lespinasse (new york city), 2 e. 55th st., new york city, 2123396719, asian, 43
lutece, 249 e. 50th st., new york, 2127522225, french, 44
lutece, 249 e. 50th st., new york city, 2127522225, french (classic), 44
manhattan ocean club, 57 w. 58th st., new york, 212 3717777, seafood, 45
manhattan ocean club, 57 w. 58th st., new york city, 2123717777, seafood, 45
march, 405 e. 58th st., new york, 2127546272, american, 46
march, 405 e. 58th st., new york city, 2127546272, american (new), 46
mesa grill, 102 5th ave.  between 15th and 16th sts., new york, 2128077400, american, 47
mesa grill, 102 fifth ave., new york city, 2128077400, southwestern, 47
mi cocina, 57 jane st.  off hudson st., new york, 2126278273, mexican, 48
mi cocina, 57 jane st., new york city, 2126278273, mexican, 48
montrachet, 239 w. broadway  between walker and white sts., new york, 212 2192777, french, 49
montrachet, 239 w. broadway, new york city, 2122192777, french bistro, 49
oceana, 55 e. 54th st., new york, 2127595941, seafood, 50
oceana, 55 e. 54th st., new york city, 2127595941, seafood, 50
park avenue cafe, 100 e. 63rd st., new york, 2126441900, american, 51
park avenue cafe (new york city), 100 e. 63rd st., new york city, 2126441900, american (new), 51
petrossian, 182 w. 58th st., new york, 2122452214, french, 52
petrossian, 182 w. 58th st., new york city, 2122452214, russian, 52
picholine, 35 w. 64th st., new york, 2127248585, mediterranean, 53
picholine, 35 w. 64th st., new york city, 2127248585, mediterranean, 53
pisces, 95 ave. a at 6th st., new york, 2122606660, seafood, 54
pisces, 95 ave. a, new york city, 2122606660, seafood, 54
rainbow room, 30 rockefeller plaza, new york, 2126325000, or 2126325100 american, 55
rainbow room, 30 rockefeller plaza, new york city, 2126325000, american (new), 55
river cafe, 1 water st. at the east river, brooklyn, 7185225200, american, 56
river cafe, 1 water st., brooklyn, 7185225200, american (new), 56
san domenico, 240 central park s, new york, 2122655959, italian, 57
san domenico, 240 central park s., new york city, 2122655959, italian, 57
second avenue deli, 156 2nd ave. at 10th st., new york, 2126770606, delicatessen, 58
second avenue deli, 156 second ave., new york city, 2126770606, delis, 58
seryna, 11 e. 53rd st., new york, 2129809393, asian, 59
seryna, 11 e. 53rd st., new york city, 2129809393, japanese, 59
shun lee west, 43 w. 65th st., new york, 2123718844, asian, 60
shun lee palace, 155 e. 55th st., new york city, 2123718844, chinese, 60
sign of the dove, 1110 3rd ave. at 65th st., new york, 2128618080, american, 61
sign of the dove, 1110 third ave., new york city, 2128618080, american (new), 61
smith & wollensky, 201 e. 49th st., new york, 2127531530, american, 62
smith & wollensky, 797 third ave., new york city, 2127531530, steakhouses, 62
tavern on the green, in central park at 67th st., new york, 2128733200, american, 63
tavern on the green, central park west, new york city, 2128733200, american (new), 63
uncle nicks, 747 9th ave.  between 50th and 51st sts., new york, 2123151726, mediterranean, 64
uncle nicks, 747 ninth ave., new york city, 2122457992, greek, 64
union square cafe, 21 e. 16th st., new york, 2122434020, american, 65
union square cafe, 21 e. 16th st., new york city, 2122434020, american (new), 65
virgils, 152 w. 44th st., new york, 212 9219494, american, 66
virgils real bbq, 152 w. 44th st., new york city, 2129219494, bbq, 66
chins, 3200 las vegas blvd. s, las vegas, 7027338899, asian, 67
chins, 3200 las vegas blvd. s., las vegas, 7027338899, chinese, 67
coyote cafe, 3799 las vegas blvd. s, las vegas, 7028917349, southwestern, 68
coyote cafe (las vegas), 3799 las vegas blvd. s., las vegas, 7028917349, southwestern, 68
le montrachet, 3000 w. paradise rd., las vegas, 7027325111, continental, 69
le montrachet bistro, 3000 paradise rd., las vegas, 7027325651, french bistro, 69
palace court, 3570 las vegas blvd. s, las vegas, 7027317547, continental, 70
palace court, 3570 las vegas blvd. s., las vegas, 7027317110, french (new), 70
second street grille, 200 e. fremont st., las vegas, 7023853232, seafood, 71
second street grill, 200 e. fremont st., las vegas, 7023856277, pacific rim, 71
steak house, 2880 las vegas blvd. s, las vegas, 7027340410, steak houses, 72
steak house  the, 2880 las vegas blvd. s., las vegas, 7027340410, steakhouses, 72
tillerman, 2245 e. flamingo rd., las vegas, 7027314036, seafood, 73
tillerman  the, 2245 e. flamingo rd., las vegas, 7027314036, steakhouses, 73
abruzzi, 2355 peachtree rd.  peachtree battle shopping center, atlanta, 4042618186, italian, 74
abruzzi, 2355 peachtree rd. ne, atlanta, 4042618186, italian, 74
bacchanalia, 3125 piedmont rd.  near peachtree rd., atlanta, 4043650410, international, 75
bacchanalia, 3125 piedmont rd., atlanta, 4043650410, californian, 75
bones, 3130 piedmont road, atlanta, 4042372663, american, 76
bones restaurant, 3130 piedmont rd. ne, atlanta, 4042372663, steakhouses, 76
brasserie le coze, 3393 peachtree rd.  lenox square mall  near neiman marcus, atlanta, 4042661440, french, 77
brasserie le coze, 3393 peachtree rd., atlanta, 4042661440, french bistro, 77
buckhead diner, 3073 piedmont road, atlanta, 4042623336, american, 78
buckhead diner, 3073 piedmont rd., atlanta, 4042623336, american (new), 78
ciboulette, 1529 piedmont ave., atlanta, 4048747600, french, 79
ciboulette restaurant, 1529 piedmont ave., atlanta, 4048747600, french (new), 79
delectables, 1 margaret mitchell sq., atlanta, 4046812909, american, 80
delectables, 1 margaret mitchell sq., atlanta, 4046812909, cafeterias, 80
georgia grille, 2290 peachtree rd.  peachtree square shopping center, atlanta, 4043523517, american, 81
georgia grille, 2290 peachtree rd., atlanta, 4043523517, southwestern, 81
hedgerose heights inn, 490 e. paces ferry rd., atlanta, 4042337673, international, 82
hedgerose heights inn  the, 490 e. paces ferry rd. ne, atlanta, 4042337673, continental, 82
heera of india, 595 piedmont ave.  rio shopping mall, atlanta, 4048764408, asian, 83
heera of india, 595 piedmont ave., atlanta, 4048764408, indian, 83
indigo coastal grill, 1397 n. highland ave., atlanta, 4048760676, caribbean, 84
indigo coastal grill, 1397 n. highland ave., atlanta, 4048760676, eclectic, 84
la grotta, 2637 peachtree rd.  peachtree house condominium, atlanta, 4042311368, italian, 85
la grotta, 2637 peachtree rd. ne, atlanta, 4042311368, italian, 85
mary macs tea room, 224 ponce de leon ave., atlanta, 4048761800, southern, 86
mary macs tea room, 224 ponce de leon ave., atlanta, 4048761800, southernsoul, 86
nikolais roof, 255 courtland st.  at harris st., atlanta, 4042216362, continental, 87
nikolais roof, 255 courtland st., atlanta, 4042216362, continental, 87
panos and pauls, 1232 w. paces ferry rd., atlanta, 4042613662, international, 88
panos & pauls, 1232 w. paces ferry rd., atlanta, 4042613662, american (new), 88
cafe  ritzcarlton  buckhead, 3434 peachtree rd., atlanta, 4042372700, ext 6108 international, 89
ritzcarlton cafe (buckhead), 3434 peachtree rd. ne, atlanta, 4042372700, american (new), 89
dining room  ritzcarlton  buckhead, 3434 peachtree rd., atlanta, 4042372700, international, 90
ritzcarlton dining room (buckhead), 3434 peachtree rd. ne, atlanta, 4042372700, american (new), 90
restaurant  ritzcarlton  atlanta, 181 peachtree st., atlanta, 4046590400, continental, 91
ritzcarlton restaurant, 181 peachtree st., atlanta, 4046590400, french (classic), 91
toulouse, b peachtree rd., atlanta, 4043519533, french, 92
toulouse, 293b peachtree rd., atlanta, 4043519533, french (new), 92
veni vidi vici, 41 14th st., atlanta, 4048758424, italian, 93
veni vidi vici, 41 14th st., atlanta, 4048758424, italian, 93
alain rondelli, 126 clement st., san francisco, 4153870408, french, 94
alain rondelli, 126 clement st., san francisco, 4153870408, french (new), 94
aqua, 252 california st., san francisco, 4159569662, seafood, 95
aqua, 252 california st., san francisco, 4159569662, american (new), 95
boulevard, 1 mission st., san francisco, 4155436084, american, 96
boulevard, 1 mission st., san francisco, 4155436084, american (new), 96
cafe claude, 7 claude la., san francisco, 4153923505, french, 97
cafe claude, 7 claude ln., san francisco, 4153923505, french bistro, 97
campton place, 340 stockton st., san francisco, 4159555555, american, 98
campton place, 340 stockton st., san francisco, 4159555555, american (new), 98
chez michel, 804 northpoint, san francisco, 4157757036, french, 99
chez michel, 804 north point st., san francisco, 4157757036, californian, 99
fleur de lys, 777 sutter st., san francisco, 4156737779, french, 100
fleur de lys, 777 sutter st., san francisco, 4156737779, french (new), 100
fringale, 570 4th st., san francisco, 4155430573, french, 101
fringale, 570 fourth st., san francisco, 4155430573, french bistro, 101
hawthorne lane, 22 hawthorne st., san francisco, 4157779779, american, 102
hawthorne lane, 22 hawthorne st., san francisco, 4157779779, californian, 102
khan toke thai house, 5937 geary blvd., san francisco, 4156686654, asian, 103
khan toke thai house, 5937 geary blvd., san francisco, 4156686654, thai, 103
la folie, 2316 polk st., san francisco, 4157765577, french, 104
la folie, 2316 polk st., san francisco, 4157765577, french (new), 104
lulu, 816 folsom st., san francisco, 4154955775, mediterranean, 105
lulu restaurantbiscafe, 816 folsom st., san francisco, 4154955775, mediterranean, 105
masas, 648 bush st., san francisco, 4159897154, french, 106
masas, 648 bush st., san francisco, 4159897154, french (new), 106
mifune japan center  kintetsu building, 1737 post st., san francisco, 4159220337, asian, 107
mifune, 1737 post st., san francisco, 4159220337, japanese, 107
plumpjack cafe, 3201 fillmore st., san francisco, 4155634755, mediterranean, 108
plumpjack cafe, 3127 fillmore st., san francisco, 4155634755, american (new), 108
postrio, 545 post st., san francisco, 4157767825, american, 109
postrio, 545 post st., san francisco, 4157767825, californian, 109
ritzcarlton restaurant and dining room, 600 stockton st., san francisco, 4152967465, american, 110
ritzcarlton dining room (san francisco), 600 stockton st., san francisco, 4152967465, french (new), 110
rose pistola, 532 columbus ave., san francisco, 4153990499, italian, 111
rose pistola, 532 columbus ave., san francisco, 4153990499, italian, 111
adrianos ristorante, 2930 beverly glen circle, los angeles, 3104759807, italian, 112
barney greengrass, 9570 wilshire blvd., beverly hills, 3107775877, american, 113
beaurivage, 26025 pacific coast hwy., malibu, 3104565733, french, 114
bistro garden, 176 n. canon dr., los angeles, 3105503900, californian, 115
border grill, 4th st., los angeles, 3104511655, mexican, 116
broadway deli, 3rd st. promenade, santa monica, 3104510616, american, 117
cabrea, 346 s. la brea ave., los angeles, 2139382863, italian, 118
cadel sol, 4100 cahuenga blvd., los angeles, 8189854669, italian, 119
cafe pinot, 700 w. fifth st., los angeles, 2132396500, californian, 120
california pizza kitchen, 207 s. beverly dr., los angeles, 3102751101, californian, 121
canters, 419 n. fairfax ave., los angeles, 2136512030., american, 122
cava, 3rd st., los angeles, 2136588898, mediterranean, 123
cha cha cha, 656 n. virgil ave., los angeles, 2136647723, caribbean, 124
chan dara, 310 n. larchmont blvd., los angeles, 2134671052, asian, 125
clearwater cafe, 168 w. colorado blvd., los angeles, 8183560959, health food, 126
dining room, 9500 wilshire blvd., los angeles, 3102755200, californian, 127
dive!, 10250 santa monica blvd., los angeles, 310788, dive american, 128
drago, 2628 wilshire blvd., santa monica, 3108281585, italian, 129
drais, 730 n. la cienega blvd., los angeles, 3103588585, french, 130
dynasty room, 930 hilgard ave., los angeles, 3102088765, continental, 131
eclipse, 8800 melrose ave., los angeles, 3107245959, californian, 132
ed debevics, 134 n. la cienega, los angeles, 3106591952, american, 133
el cholo, 1121 s. western ave., los angeles, 2137342773, mexican, 134
gillilands, 2424 main st., santa monica, 3103923901, american, 135
gladstones, 4 fish 17300 pacific coast hwy. at sunset blvd., pacific palisades, 3104543474, american, 136
hard rock cafe, 8600 beverly blvd., los angeles, 3102767605, american, 137
harrys bar & american grill, 2020 ave. of the stars, los angeles, 3102772333, italian, 138
il fornaio cucina italiana, 301 n. beverly dr., los angeles, 3105508330, italian, 139
jack sprats grill, 10668 w. pico blvd., los angeles, 3108376662, health food, 140
jacksons farm, 439 n. beverly drive, los angeles, 3102735578, californian, 141
jimmys, 201 moreno dr., los angeles, 3105522394, continental, 142
joss, 9255 sunset blvd., los angeles, 3102761886, asian, 143
le colonial, 8783 beverly blvd., los angeles, 3102890660, asian, 144
le dome, 8720 sunset blvd., los angeles, 3106596919, french, 145
louises trattoria, 4500 los feliz blvd., los angeles, 2136670777, italian, 146
mon kee seafood restaurant, 679 n. spring st., los angeles, 2136286717, asian, 147
mortons, 8764 melrose ave., los angeles, 3102765205, american, 148
nate n als, 414 n. beverly dr., los angeles, 3102740101, american, 149
nicola, 601 s. figueroa st., los angeles, 2134850927, american, 150
ocean avenue, 1401 ocean ave., santa monica, 3103945669, american, 151
orleans, 11705 national blvd., los angeles, 3104794187, cajun, 152
pacific dining car, 6th st., los angeles, 2134836000, american, 153
patys, 10001 riverside dr., toluca lake, 8187619126, american, 154
pinot hollywood, 1448 n. gower st., los angeles, 2134618800, californian, 155
posto, 14928 ventura blvd., sherman oaks, 8187844400, italian, 156
prego, 362 n. camden dr., los angeles, 3102777346, italian, 157
rjs the rib joint, 252 n. beverly dr., los angeles, 3102747427, american, 158
remi, 3rd st. promenade, santa monica, 3103936545, italian, 159
restaurant horikawa, 111 s. san pedro st., los angeles, 2136809355, asian, 160
roscoes house of chicken n waffles, 1514 n. gower st., los angeles, 2134669329, american, 161
schatzi on main, 3110 main st., los angeles, 3103994800, continental, 162
sofi, 3rd st., los angeles, 2136510346, mediterranean, 163
swingers, 8020 beverly blvd., los angeles, 2136535858, american, 164
tavola calda, 7371 melrose ave., los angeles, 2136586340, italian, 165
the mandarin, 430 n. camden dr., los angeles, 3108590926, asian, 166
tommy tangs, 7313 melrose ave., los angeles, 2139375733, asian, 167
tra di noi, 3835 cross creek rd., los angeles, 3104560169, italian, 168
trader vics, 9876 wilshire blvd., los angeles, 3102766345, asian, 169
vida, 1930 north hillhurst ave., los feliz, 2136604446, american, 170
west beach cafe, 60 n. venice blvd., los angeles, 3108235396, american, 171
20 mott, 20 mott st.  between bowery and pell st., new york, 2129640380, asian, 172
9 jones street, 9 jones st., new york, 2129891220, american, 173
adrienne, 700 5th ave. at 55th st., new york, 2129033918, french, 174
agrotikon, 322 e. 14 st.  between 1st and 2nd aves., new york, 2124732602, mediterranean, 175
aja, 937 broadway at 22nd st., new york, 2124738388, american, 176
alamo, 304 e. 48th st., new york, 212 7590590, mexican, 177
alleys end, 311 w. 17th st., new york, 2126278899, american, 178
ambassador grill, 1 united nations plaza at 44th st., new york, 2127025014, american, 179
american place, 2 park ave. at 32nd st., new york, 2126842122, american, 180
anche vivolo, 222 e. 58th st.  between 2nd and 3rd aves., new york, 2123080112, italian, 181
arizona, 206 206 e. 60th st., new york, 2128380440, american, 182
arturos, 106 w. houston st.  off thompson st., new york, 2126773820, italian, 183
au mandarin, 200250 vesey st. world financial center, new york, 2123850313, asian, 184
bar anise, 1022 3rd ave.  between 60th and 61st sts., new york, 2123551112, mediterranean, 185
barbetta, 321 w. 46th st., new york, 2122469171, italian, 186
ben bensons, 123 w. 52nd st., new york, 2125818888, american, 187
big cup, 228 8th ave.  between 21st and 22nd sts., new york, 2122060059, coffee bar, 188
billys, 948 1st ave.  between 52nd and 53rd sts., new york, 2127531870, american, 189
boca chica, 13 1st ave.  near 1st st., new york, 2124730108, latin american, 190
bolo, 23 e. 22nd st., new york, 2122282200, mediterranean, 191
boonthai, 1393a 2nd ave.  between 72nd and 73rd sts., new york, 2122498484, asian, 192
bouterin, 420 e. 59th st.  off 1st ave., new york, 2127580323, french, 193
brothers barbq, 225 varick st. at clarkston st., new york, 2127272775, american, 194
bruno, 240 e. 58th st., new york, 2126884190, italian, 195
bryant park grill  roof restaurant and bp cafe, 25 w. 40th st.  between 5th and 6th aves., new york, 2128406500, american, 196
c3, 103 waverly pl.  near washington sq., new york, 2122541200, american, 197
ct, 111 e. 22nd st.  between park ave. s and lexington ave., new york, 2129958500, french, 198
cafe bianco, 1486 2nd ave.  between 77th and 78th sts., new york, 2129882655, coffee bar, 199
cafe botanica, 160 central park s, new york, 2124845120, french, 200
cafe la fortuna, 69 w. 71st st., new york, 2127245846, coffee bar, 201
cafe luxembourg, 200 w. 70th st., new york, 2128737411, french, 202
cafe pierre, 2 e. 61st st., new york, 2129408185, french, 203
cafe centro, 200 park ave.  between 45th st. and vanderbilt ave., new york, 2128181222, french, 204
cafe fes, 246 w. 4th st. at charles st., new york, 2129247653, mediterranean, 205
caffe dante, 81 macdougal st.  between houston and bleeker sts., new york, 2129825275, coffee bar, 206
caffe dellartista, 46 greenwich ave., new york, 2126454431, coffee bar, 207
caffe lure, 169 sullivan st.  between houston and bleecker sts., new york, 2124732642, french, 208
caffe reggio, 119 macdougal st.  between 3rd and bleecker sts., new york, 2124759557, coffee bar, 209
caffe roma, 385 broome st. at mulberry, new york, 2122268413, coffee bar, 210
caffe vivaldi, 32 jones st. at bleecker st., new york, 2126917538, coffee bar, 211
caffe bondi ristorante, 7 w. 20th st., new york, 2126918136, italian, 212
capsouto freres, 451 washington st.  near watts st., new york, 2129664900, french, 213
captains table, 860 2nd ave. at 46th st., new york, 2126979538, seafood, 214
casa la femme, 150 wooster st.  between houston and prince sts., new york, 2125050005, middle eastern, 215
cendrillon asian grill & marimba bar, 45 mercer st.  between broome and grand sts., new york, 2123439012, asian, 216
chez jacqueline, 72 macdougal st.  between w. houston and bleecker sts., new york, 2125050727, french, 217
chiam, 160 e. 48th st., new york, 2123712323, asian, 218
china grill, 60 w. 53rd st., new york, 2123337788, american, 219
cite, 120 w. 51st st., new york, 2129567100, french, 220
coco pazzo, 23 e. 74th st., new york, 2127940205, italian, 221
columbus bakery, 53rd sts., new york, 2124210334, coffee bar, 222
corrado cafe, 1013 3rd ave.  between 60th and 61st sts., new york, 2127535100, coffee bar, 223
cupcake cafe, 522 9th ave. at 39th st., new york, 2124651530, coffee bar, 224
da nico, 164 mulberry st.  between grand and broome sts., new york, 2123431212, italian, 225
dean & deluca, 121 prince st., new york, 2122548776, coffee bar, 226
diva, 341 w. broadway  near grand st., new york, 2129419024, italian, 227
dix et sept, 181 w. 10th st., new york, 2126458023, french, 228
docks, 633 3rd ave. at 40th st., new york, 212 9868080, seafood, 229
duane park cafe, 157 duane st.  between w. broadway and hudson st., new york, 2127325555, american, 230
el teddys, 219 w. broadway  between franklin and white sts., new york, 2129417070, mexican, 231
emilys, 1325 5th ave. at 111th st., new york, 2129961212, american, 232
empire korea, 6 e. 32nd st., new york, 2127251333, asian, 233
ernies, 2150 broadway  between 75th and 76th sts., new york, 2124961588, american, 234
evergreen cafe, 1288 1st ave. at 69th st., new york, 2127443266, asian, 235
f. ille ponte ristorante, 39 desbrosses st.  near west st., new york, 2122264621, italian, 236
felix, 340 w. broadway at grand st., new york, 2124310021, french, 237
ferrier, 29 e. 65th st., new york, 2127729000, french, 238
fifty seven fifty seven, 57 e. 57th st., new york, 2127585757, american, 239
film center cafe, 635 9th ave.  between 44th and 45th sts., new york, 212 2622525, american, 240
fiorellos roman cafe, 1900 broadway  between 63rd and 64th sts., new york, 2125955330, italian, 241
firehouse, 522 columbus ave.  between 85th and 86th sts., new york, 2125953139, american, 242
first, 87 1st ave.  between 5th and 6th sts., new york, 2126743823, american, 243
fishin eddie, 73 w. 71st st., new york, 2128743474, seafood, 244
fleur de jour, 348 e. 62nd st., new york, 2123552020, coffee bar, 245
flowers, 21 west 17th st.  between 5th and 6th aves., new york, 2126918888, american, 246
follonico, 6 w. 24th st., new york, 2126916359, italian, 247
fraunces tavern, 54 pearl st. at broad st., new york, 2122690144, american, 248
french roast, 458 6th ave. at 11th st., new york, 2125332233, french, 249
french roast cafe, 2340 broadway at 85th st., new york, 2127991533, coffee bar, 250
frico bar, 402 w. 43rd st.  off 9th ave., new york, 2125647272, italian, 251
fujiyama mama, 467 columbus ave.  between 82nd and 83rd sts., new york, 2127691144, asian, 252
gabrielas, 685 amsterdam ave. at 93rd st., new york, 2129610574, mexican, 253
gallaghers, 228 w. 52nd st., new york, 2122455336, american, 254
giannis, 15 fulton st., new york, 2126087300, seafood, 255
girafe, 208 e. 58th st.  between 2nd and 3rd aves., new york, 2127523054, italian, 256
global, 33 93 2nd ave.  between 5th and 6th sts., new york, 2124778427, american, 257
golden unicorn, 18 e. broadway at catherine st., new york, 212 9410911, asian, 258
grand ticino, 228 thompson st.  between w. 3rd and bleecker sts., new york, 2127775922, italian, 259
halcyon, 151 w. 54th st.  in the rihga royal hotel, new york, 2124688888, american, 260
hard rock cafe, 221 w. 57th st., new york, 2124896565, american, 261
hilife restaurant and lounge, 1340 1st ave. at 72nd st., new york, 2122493600, american, 262
home, 20 cornelia st.  between bleecker and w. 4th st., new york, 2122439579, american, 263
hudson river club, 4 world financial center, new york, 2127861500, american, 264
i trulli, 122 e. 27th st.  between lexington and park aves., new york, 2124817372, italian, 265
il cortile, 125 mulberry st.  between canal and hester sts., new york, 2122266060, italian, 266
il nido, 251 e. 53rd st., new york, 2127538450, italian, 267
inca grill, 492 broome st.  near w. broadway, new york, 2129663371, latin american, 268
indochine, 430 lafayette st.  between 4th st. and astor pl., new york, 2125055111, asian, 269
internet cafe, 82 e. 3rd st.  between 1st and 2nd aves., new york, 212 6140747, coffee bar, 270
ipanema, 13 w. 46th st., new york, 2127305848, latin american, 271
jean lafitte, 68 w. 58th st., new york, 2127512323, french, 272
jewel of india, 15 w. 44th st., new york, 2128695544, asian, 273
jimmy sungs, 219 e. 44th st.  between 2nd and 3rd aves., new york, 2126825678, asian, 274
joe allen, 326 w. 46th st., new york, 2125816464, american, 275
judson grill, 152 w. 52nd st., new york, 2125825252, american, 276
labsinthe, 227 e. 67th st., new york, 2127944950, french, 277
lauberge, 1191 1st ave.  between 64th and 65th sts., new york, 2122888791, middle eastern, 278
lauberge du midi, 310 w. 4th st.  between w. 12th and bank sts., new york, 2122424705, french, 279
ludo, 432 lafayette st.  near astor pl., new york, 2123880978, french, 280
la reserve, 4 w. 49th st., new york, 2122472993, french, 281
lanza restaurant, 168 1st ave.  between 10th and 11th sts., new york, 2126747014, italian, 282
lattanzi ristorante, 361 w. 46th st., new york, 2123150980, italian, 283
layla, 211 w. broadway at franklin st., new york, 2124310700, middle eastern, 284
le chantilly, 106 e. 57th st., new york, 2127512931, french, 285
le colonial, 149 e. 57th st., new york, 212 7520808, asian, 286
le gamin, 50 macdougal st.  between houston and prince sts., new york, 2122544678, coffee bar, 287
le jardin, 25 cleveland pl.  near spring st., new york, 2123439599, french, 288
le madri, 168 w. 18th st., new york, 2127278022, italian, 289
le marais, 150 w. 46th st., new york, 2128690900, american, 290
le perigord, 405 e. 52nd st., new york, 2127556244, french, 291
le select, 507 columbus ave.  between 84th and 85th sts., new york, 2128751993, american, 292
les halles, 411 park ave. s  between 28th and 29th sts., new york, 2126794111, french, 293
lincoln tavern, 51 w. 64th st., new york, 2127218271, american, 294
lola, 30 west 22nd st.  between 5th and 6th ave., new york, 2126756700, american, 295
lucky strike, 59 grand st.  between wooster st. and w. broadway, new york, 2129410479, or 2129410772 american, 296
mad fish, 2182 broadway  between 77th and 78th sts., new york, 2127870202, seafood, 297
main street, 446 columbus ave.  between 81st and 82nd sts., new york, 2128735025, american, 298
mangia e bevi, 800 9th ave. at 53rd st., new york, 2129563976, italian, 299
manhattan cafe, 1161 1st ave.  between 63rd and 64th sts., new york, 2128886556, american, 300
manila garden, 325 e. 14th st.  between 1st and 2nd aves., new york, 2127776314, asian, 301
marichu, 342 e. 46th st.  between 1st and 2nd aves., new york, 2123701866, french, 302
marquet patisserie, 15 e. 12th st.  between 5th ave. and university pl., new york, 2122299313, coffee bar, 303
match, 160 mercer st.  between houston and prince sts., new york, 2129069173, american, 304
matthews, 1030 3rd ave. at 61st st., new york, 2128384343, american, 305
mavalli palace, 46 e. 29th st., new york, 2126795535, asian, 306
milan cafe and coffee bar, 120 w. 23rd st., new york, 2128071801, coffee bar, 307
monkey bar, 60 e. 54th st., new york, 2128382600, american, 308
montien, 1134 1st ave.   between 62nd and 63rd sts., new york, 2124214433, asian, 309
mortons, 551 5th ave. at 45th st., new york, 2129723315, american, 310
motown cafe, 104 w. 57th st.  near 6th ave., new york, 2125818030, american, 311
new york kom tang soot bul house, 32 w. 32nd st., new york, 212 9478482, asian, 312
new york noodletown, 28 12 bowery at bayard st., new york, 2123490923, asian, 313
newsbar, 2 w. 19th st., new york, 2122553996, coffee bar, 314
odeon, 145 w. broadway at thomas st., new york, 2122330507, american, 315
orso, 322 w. 46th st., new york, 2124897212, italian, 316
osteria al droge, 142 w. 44th st., new york, 2129443643, italian, 317
otabe, 68 e. 56th st., new york, 2122237575, asian, 318
pacifica, 138 lafayette st.  between canal and howard sts., new york, 2129414168, asian, 319
palio, 151 w. 51st. st., new york, 2122454850, italian, 320
pamir, 1065 1st ave.  at 58th st., new york, 2126449258, middle eastern, 321
parioli romanissimo, 24 e. 81st st., new york, 2122882391, italian, 322
patria, 250 park ave. s at 20th st., new york, 2127776211, latin american, 323
peacock alley, 301 park ave.  between 49th and 50th sts., new york, 2128724895, french, 324
pen & pencil, 205 e. 45th st., new york, 2126828660, american, 325
penang soho, 109 spring st.  between greene and mercer sts., new york, 2122748883, asian, 326
persepolis, 1423 2nd ave.  between 74th and 75th sts., new york, 2125351100, middle eastern, 327
planet hollywood, 140 w. 57th st., new york, 2123337827, american, 328
pomaire, 371 w. 46th st.  off 9th ave., new york, 212 9563055, latin american, 329
popover cafe, 551 amsterdam ave.  between 86th and 87th sts., new york, 2125958555, american, 330
post house, 28 e. 63rd st., new york, 2129352888, american, 331
rain, 100 w. 82nd st., new york, 2125010776, asian, 332
red tulip, 439 e. 75th st., new york, 2127344893, eastern european, 333
remi, 145 w. 53rd st., new york, 2125814242, italian, 334
republic, 37a union sq. w  between 16th and 17th sts., new york, 2126277172, asian, 335
roettelle a. g, 126 e. 7th st.  between 1st ave. and ave. a, new york, 2126744140, continental, 336
rosa mexicano, 1063 1st ave. at 58th st., new york, 2127537407, mexican, 337
ruths chris, 148 w. 51st st., new york, 2122459600, american, 338
s.p.q.r, 133 mulberry st.  between hester and grand sts., new york, 2129253120, italian, 339
sal anthonys, 55 irving pl., new york, 2129829030, italian, 340
sammys roumanian steak house, 157 chrystie st. at delancey st., new york, 2126730330, east european, 341
san pietro, 18 e. 54th st., new york, 2127539015, italian, 342
sant ambroeus, 1000 madison ave.  between 77th and 78th sts., new york, 2125702211, coffee bar, 343
sarabeths kitchen, 423 amsterdam ave.  between 80th and 81st sts., new york, 2124966280, american, 344
sea grill, 19 w. 49th st., new york, 2123327610, seafood, 345
serendipity, 3 225 e. 60th st., new york, 2128383531, american, 346
seventh regiment mess and bar, 643 park ave. at 66th st., new york, 2127444107, american, 347
sfuzzi, 58 w. 65th st., new york, 2128733700, american, 348
shaan, 57 w. 48th st., new york, 212 9778400, asian, 349
sofia fabulous pizza, 1022 madison ave.  near 79th st., new york, 2127342676, italian, 350
spring street natural restaurant & bar, 62 spring st. at lafayette st., new york, 2129660290, american, 351
stage deli, 834 7th ave.  between 53rd and 54th sts., new york, 2122457850, delicatessen, 352
stingray, 428 amsterdam ave.  between 80th and 81st sts., new york, 2125017515, seafood, 353
sweetntart cafe, 76 mott st. at canal st., new york, 2123348088, asian, 354
t salon, 143 mercer st. at prince st., new york, 2129253700, coffee bar, 355
tang pavillion, 65 w. 55th st., new york, 2129566888, asian, 356
tapika, 950 8th ave. at 56th st., new york, 212 3973737, american, 357
teresas, 103 1st ave.  between 6th and 7th sts., new york, 2122280604, east european, 358
terrace, 400 w. 119th st.  between amsterdam and morningside aves., new york, 2126669490, continental, 359
the coffee pot, 350 9th ave. at 49th st., new york, 2122653566, coffee bar, 360
the savannah club, 2420 broadway at 89th st., new york, 2124961066, american, 361
trattoria dellarte, 900 7th ave.  between 56th and 57th sts., new york, 2122459800, italian, 362
triangolo, 345 e. 83rd st., new york, 2124724488, italian, 363
tribeca grill, 375 greenwich st.  near franklin st., new york, 2129413900, american, 364
trois jean, 154 e. 79th st.  between lexington and 3rd aves., new york, 2129884858, coffee bar, 365
tse yang, 34 e. 51st st., new york, 2126885447, asian, 366
turkish kitchen, 386 3rd ave.  between 27th and 28th sts., new york, 2126791810, middle eastern, 367
two two two, 222 w. 79th st., new york, 2127990400, american, 368
venieros pasticceria, 342 e. 11th st.  near 1st ave., new york, 2126747264, coffee bar, 369
verbena, 54 irving pl. at 17th st., new york, 2122605454, american, 370
victors cafe, 52 236 w. 52nd st., new york, 2125867714, latin american, 371
vince & eddies, 70 w. 68th st., new york, 2127210068, american, 372
vong, 200 e. 54th st., new york, 2124869592, american, 373
water club, 500 e. 30th st., new york, 2126833333, american, 374
west, 63rd street steakhouse 44 w. 63rd st., new york, 2122466363, american, 375
xunta, 174 1st ave.  between 10th and 11th sts., new york, 2126140620, mediterranean, 376
zen palate, 34 union sq. e at 16th st., new york, 2126149291, and 2126149345 asian, 377
zoe, 90 prince st.  between broadway and mercer st., new york, 2129666722, american, 378
abbey, 163 ponce de leon ave., atlanta, 4048768532, international, 379
alecks barbecue heaven, 783 martin luther king jr. dr., atlanta, 4045252062, barbecue, 380
annies thai castle, 3195 roswell rd., atlanta, 4042649546, asian, 381
anthonys, 3109 piedmont rd.  just south of peachtree rd., atlanta, 4042627379, american, 382
atlanta fish market, 265 pharr rd., atlanta, 4042623165, american, 383
beesleys of buckhead, 260 e. paces ferry road, atlanta, 4042641334, continental, 384
bertolinis, 3500 peachtree rd.  phipps plaza, atlanta, 4042332333, italian, 385
bistango, 1100 peachtree st., atlanta, 4047240901, mediterranean, 386
cafe renaissance, 7050 jimmy carter blvd.  norcross, atlanta, 7704410291, american, 387
camilles, 1186 n. highland ave., atlanta, 4048727203, italian, 388
cassis, 3300 peachtree rd.  grand hyatt, atlanta, 4043658100, mediterranean, 389
city grill, 50 hurt plaza, atlanta, 4045242489, international, 390
coco loco, 40  buckhead crossing mall on the sidney marcus blvd., atlanta, 4043640212, caribbean, 391
colonnade restaurant, 1879 cheshire bridge rd., atlanta, 4048745642, southern, 392
dantes down the hatch  buckhead, 3380 peachtree rd., atlanta, 4042661600, continental, 393
dantes down the hatch, underground underground mall  underground atlanta, atlanta, 4045771800, continental, 394
fat matts rib shack, 1811 piedmont ave.  near cheshire bridge rd., atlanta, 4046071622, barbecue, 395
french quarter food shop, 923 peachtree st.  at 8th st., atlanta, 4048752489, southern, 396
holt bros. barbq, 6359 jimmy carter blvd.  at buford hwy.  norcross, atlanta, 7702423984, barbecue, 397
horseradish grill, 4320 powers ferry rd., atlanta, 4042557277, southern, 398
hsus gourmet, 192 peachtree center ave.  at international blvd., atlanta, 4046592788, asian, 399
imperial fez, 2285 peachtree rd.  peachtree battle condominium, atlanta, 4043510870, mediterranean, 400
kamogawa, 3300 peachtree rd.  grand hyatt, atlanta, 4048410314, asian, 401
la grotta at ravinia dunwoody rd., holiday inncrowne plaza at ravinia  dunwoody, atlanta, 7703959925, italian, 402
little szechuan, c buford hwy.  northwoods plaza  doraville, atlanta, 7704510192, asian, 403
lowcountry barbecue, 6301 roswell rd.  sandy springs plaza  sandy springs, atlanta, 4042555160, barbecue, 404
luna si, 1931 peachtree rd., atlanta, 4043555993, continental, 405
mambo restaurante cubano, 1402 n. highland ave., atlanta, 4048742626, caribbean, 406
mckinnons louisiane, 3209 maple dr., atlanta, 4042371313, southern, 407
mi spia dunwoody rd., park place  across from perimeter mall  dunwoody, atlanta, 7703931333, italian, 408
nickiemotos: a sushi bar, 247 buckhead ave.  east village sq., atlanta, 4048420334, fusion, 409
palisades, 1829 peachtree rd., atlanta, 4043506755, continental, 410
pleasant peasant, 555 peachtree st.  at linden ave., atlanta, 4048743223, american, 411
pricci, 500 pharr rd., atlanta, 4042372941, italian, 412
r.j.s uptown kitchen & wine bar, 870 n. highland ave., atlanta, 4048757775, american, 413
rib ranch, 25 irby ave., atlanta, 4042337644, barbecue, 414
sa tsu ki, 3043 buford hwy., atlanta, 4043255285, asian, 415
sato sushi and thai, 6050 peachtree pkwy.  norcross, atlanta, 7704490033, asian, 416
south city kitchen, 1144 crescent ave., atlanta, 4048737358, southern, 417
south of france, 2345 cheshire bridge rd., atlanta, 4043256963, french, 418
stringers fish camp and oyster bar, 3384 shallowford rd.  chamblee, atlanta, 7704587145, southern, 419
sundown cafe, 2165 cheshire bridge rd., atlanta, 4043211118, american, 420
taste of new orleans, 889 w. peachtree st., atlanta, 4048745535, southern, 421
tomtom, 3393 peachtree rd., atlanta, 4042641163, continental, 422
antonios, 3700 w. flamingo, las vegas, 7022527737, italian, 423
ballys big kitchen, 3645 las vegas blvd. s, las vegas, 7027394111, buffets, 424
bamboo garden, 4850 flamingo rd., las vegas, 7028713262, asian, 425
battistas hole in the wall, 4041 audrie st. at flamingo rd., las vegas, 7027321424, italian, 426
bertolinis, 3570 las vegas blvd. s, las vegas, 7027354663, italian, 427
binions coffee shop, 128 fremont st., las vegas, 7023821600, coffee shopsdiners, 428
bistro, 3400 las vegas blvd. s, las vegas, 7027917111, continental, 429
broiler, 4111 boulder hwy., las vegas, 7024327777, american, 430
bugsys diner, 3555 las vegas blvd. s, las vegas, 7027333111, coffee shopsdiners, 431
cafe michelle, 1350 e. flamingo rd., las vegas, 7027358686, american, 432
cafe roma, 3570 las vegas blvd. s, las vegas, 7027317547, coffee shopsdiners, 433
capozzolis, 3333 s. maryland pkwy., las vegas, 7027315311, italian, 434
carnival world, 3700 w. flamingo rd., las vegas, 7022527777, buffets, 435
center stage plaza hotel, 1 main st., las vegas, 7023862512, american, 436
circus circus, 2880 las vegas blvd. s, las vegas, 7027340410, buffets, 437
empress court, 3570 las vegas blvd. s, las vegas, 7027317888, asian, 438
feast, 2411 w. sahara ave., las vegas, 7023672411, buffets, 439
golden nugget hotel, 129 e. fremont st., las vegas, 7023857111, buffets, 440
golden steer, 308 w. sahara ave., las vegas, 7023844470, steak houses, 441
lillie langtrys, 129 e. fremont st., las vegas, 7023857111, asian, 442
mandarin court, 1510 e. flamingo rd., las vegas, 7027371234, asian, 443
margaritas mexican cantina, 3120 las vegas blvd. s, las vegas, 7027948200, mexican, 444
marys diner, 5111 w. boulder hwy., las vegas, 7024548073, coffee shopsdiners, 445
mikado, 3400 las vegas blvd. s, las vegas, 7027917111, asian, 446
pamplemousse, 400 e. sahara ave., las vegas, 7027332066, continental, 447
ralphs diner, 3000 las vegas blvd. s, las vegas, 7027326330, coffee shopsdiners, 448
the bacchanal, 3570 las vegas blvd. s, las vegas, 7027317525, only in las vegas, 449
venetian, 3713 w. sahara ave., las vegas, 7028764190, italian, 450
viva mercados, 6182 w. flamingo rd., las vegas, 7028718826, mexican, 451
yolies, 3900 paradise rd., las vegas, 7027940700, steak houses, 452
2223, 2223 market st., san francisco, 4154310692, american, 453
acquarello, 1722 sacramento st., san francisco, 4155675432, italian, 454
bardellis, 243 ofarrell st., san francisco, 4159820243, old san francisco, 455
betelnut, 2030 union st., san francisco, 4159298855, asian, 456
bistro roti, 155 steuart st., san francisco, 4154956500, french, 457
bix, 56 gold st., san francisco, 4154336300, american, 458
bizou, 598 fourth st., san francisco, 4155432222, french, 459
buca giovanni, 800 greenwich st., san francisco, 4157767766, italian, 460
cafe adriano, 3347 fillmore st., san francisco, 4154744180, italian, 461
cafe marimba, 2317 chestnut st., san francisco, 4157761506, mexicanlatin americanspanish, 462
california culinary academy, 625 polk st., san francisco, 4157713500, french, 463
capps corner, 1600 powell st., san francisco, 4159892589, italian, 464
carta, 1772 market st., san francisco, 4158633516, american, 465
chevys, 4th and howard sts., san francisco, 4155438060, mexicanlatin americanspanish, 466
cypress club, 500 jackson st., san francisco, 4152968555, american, 467
des alpes, 732 broadway, san francisco, 4157889900, french, 468
faz, 161 sutter st., san francisco, 4153620404, greek and middle eastern, 469
fog city diner, 1300 battery st., san francisco, 4159822000, american, 470
garden court, market and new montgomery sts., san francisco, 4155465011, old san francisco, 471
gaylords, ghirardelli sq., san francisco, 4157718822, asian, 472
grand cafe hotel monaco, 501 geary st., san francisco, 4152920101, american, 473
greens, bldg. a fort mason, san francisco, 4157716222, vegetarian, 474
harbor village, 4 embarcadero center, san francisco, 4157818833, asian, 475
harris, 2100 van ness ave., san francisco, 4156731888, steak houses, 476
harry dentons, 161 steuart st., san francisco, 4158821333, american, 477
hayes street grill, 320 hayes st., san francisco, 4158635545, seafood, 478
helmand, 430 broadway, san francisco, 4153620641, greek and middle eastern, 479
hong kong flower lounge, 5322 geary blvd., san francisco, 4156688998, asian, 480
hong kong villa, 2332 clement st., san francisco, 4157528833, asian, 481
hyde street bistro, 1521 hyde st., san francisco, 4154417778, italian, 482
il fornaio levis plaza, 1265 battery st., san francisco, 4159860100, italian, 483
izzys steak & chop house, 3345 steiner st., san francisco, 4155630487, steak houses, 484
jacks, 615 sacramento st., san francisco, 4159869854, old san francisco, 485
kabuto sushi, 5116 geary blvd., san francisco, 4157525652, asian, 486
katias, 600 5th ave., san francisco, 4156689292, , 487
kuletos, 221 powell st., san francisco, 4153977720, italian, 488
kyoya. sheraton palace hotel, 2 new montgomery st.  at market st., san francisco, 4155465000, asian, 489
losteria del forno, 519 columbus ave., san francisco, 4159821124, italian, 490
le central, 453 bush st., san francisco, 4153912233, french, 491
le soleil, 133 clement st., san francisco, 4156684848, asian, 492
macarthur park, 607 front st., san francisco, 4153985700, american, 493
manora, 3226 mission st., san francisco, 4158616224, asian, 494
maykadeh, 470 green st., san francisco, 4153628286, greek and middle eastern, 495
mccormick & kuletos, ghirardelli sq., san francisco, 4159291730, seafood, 496
millennium, 246 mcallister st., san francisco, 4154879800, vegetarian, 497
mooses, 1652 stockton st., san francisco, 4159897800, mediterranean, 498
north india, 3131 webster st., san francisco, 4159311556, asian, 499
one market, 1 market st., san francisco, 4157775577, american, 500
oritalia, 1915 fillmore st., san francisco, 4153461333, italian, 501
pacific pan pacific hotel, 500 post st., san francisco, 4159292087, french, 502
palio dasti, 640 sacramento st., san francisco, 4153959800, italian, 503
pane e vino, 3011 steiner st., san francisco, 4153462111, italian, 504
pastis, 1015 battery st., san francisco, 4153912555, french, 505
perrys, 1944 union st., san francisco, 4159229022, american, 506
r&g lounge, 631 b kearny st., san francisco, 4159827877, or 4159823811 asian, 507
rubicon, 558 sacramento st., san francisco, 4154344100, american, 508
rumpus, 1 tillman pl., san francisco, 4154212300, american, 509
sanppo, 1702 post st., san francisco, 4153463486, asian, 510
scalas bistro, 432 powell st., san francisco, 4153958555, italian, 511
south park cafe, 108 south park, san francisco, 4154957275, french, 512
splendido embarcadero, 4, san francisco, 4159863222, mediterranean, 513
stars, 150 redwood alley, san francisco, 4158617827, american, 514
stars cafe, 500 van ness ave., san francisco, 4158614344, american, 515
stoyanofs cafe, 1240 9th ave., san francisco, 4156643664, greek and middle eastern, 516
straits cafe, 3300 geary blvd., san francisco, 4156681783, asian, 517
suppenkuche, 601 hayes st., san francisco, 4152529289, russiangerman, 518
tadich grill, 240 california st., san francisco, 4153912373, seafood, 519
the heights, 3235 sacramento st., san francisco, 4154748890, french, 520
thepin, 298 gough st., san francisco, 4158639335, asian, 521
ton kiang, 3148 geary blvd., san francisco, 4157524440, asian, 522
vertigo, 600 montgomery st., san francisco, 4154337250, mediterranean, 523
vivande porta via, 2125 fillmore st., san francisco, 4153464430, italian, 524
vivande ristorante, 670 golden gate ave., san francisco, 4156739245, italian, 525
world wrapps, 2257 chestnut st., san francisco, 4155639727, american, 526
wu kong, 101 spear st., san francisco, 4159579300, asian, 527
yank sing, 427 battery st., san francisco, 4155414949, asian, 528
yaya cuisine, 1220 9th ave., san francisco, 4155666966, greek and middle eastern, 529
yoyo tsumami bistro, 1611 post st., san francisco, 4159227788, french, 530
zarzuela, 2000 hyde st., san francisco, 4153460800, mexicanlatin americanspanish, 531
zuni cafe & grill, 1658 market st., san francisco, 4155522522, mediterranean, 532
apple pan  the, 10801 w. pico blvd., west la, 3104753585, american, 534
asahi ramen, 2027 sawtelle blvd., west la, 3104792231, noodle shops, 535
baja fresh, 3345 kimber dr., westlake village, 8054984049, mexican, 536
belvedere  the, 9882 little santa monica blvd., beverly hills, 3107882306, pacific new wave, 537
benitas frites, 1433 third st. promenade, santa monica, 3104582889, fast food, 538
bernards, 515 s. olive st., los angeles, 2136121580, continental, 539
bistro 45, 45 s. mentor ave., pasadena, 8187952478, californian, 540
brents deli, 19565 parthenia ave., northridge, 8188865679, delis, 541
brighton coffee shop, 9600 brighton way, beverly hills, 3102767732, coffee shops, 542
bristol farms market cafe, 1570 rosecrans ave. s., pasadena, 3106435229, californian, 543
brunos, 3838 centinela ave., mar vista, 3103975703, italian, 544
cafe 50s, 838 lincoln blvd., venice, 3103991955, american, 545
cafe blanc, 9777 little santa monica blvd., beverly hills, 3108880108, pacific new wave, 546
cassells, 3266 w. sixth st., la, 2134808668, hamburgers, 547
chez melange, 1716 pch, redondo beach, 3105401222, eclectic, 548
diaghilev, 1020 n. san vicente blvd., w. hollywood, 3108541111, russian, 549
don antonios, 1136 westwood blvd., westwood, 3102091422, italian, 550
dukes, 8909 sunset blvd., w. hollywood, 3106523100, coffee shops, 551
falafel king, 1059 broxton ave., westwood, 3102084444, middle eastern, 552
feast from the east, 1949 westwood blvd., west la, 3104750400, chinese, 553
gumbo pot  the, 6333 w. third st., la, 2139330358, cajuncreole, 554
hollywood hills coffee shop, 6145 franklin ave., hollywood, 2134677678, coffee shops, 555
indo cafe, 10428 12 national blvd., la, 3108151290, indonesian, 556
jans family restaurant, 8424 beverly blvd., la, 2136512866, coffee shops, 557
jiraffe, 502 santa monica blvd, santa monica, 3109176671, californian, 558
jody maronis sausage kingdom, 2011 ocean front walk, venice, 3103061995, hot dogs, 559
joes, 1023 abbot kinney blvd., venice, 3103995811, american (new), 560
john ogroats, 10516 w. pico blvd., west la, 3102040692, coffee shops, 561
johnnies pastrami, 4017 s. sepulveda blvd., culver city, 3103976654, delis, 562
johnny rebs southern smokehouse, 4663 long beach blvd., long beach, 3104237327, southernsoul, 563
johnny rockets (la), 7507 melrose ave., la, 2136513361, american, 564
killer shrimp, 4000 colfax ave., studio city, 8185081570, seafood, 565
kokomo cafe, 6333 w. third st., la, 2139330773, american, 566
koo koo roo, 8393 w. beverly blvd., la, 2136559045, chicken, 567
la cachette, 10506 little santa monica blvd., century city, 3104704992, french (new), 568
la salsa (la), 22800 pch, malibu, 3104566299, mexican, 569
la serenata de garibaldi, 1842 e. first, st. boyle hts., 2132652887, mexicantexmex, 570
langers, 704 s. alvarado st., la, 2134838050, delis, 571
local nochol, 30869 thousand oaks blvd., westlake village, 8187067706, health food, 572
main course  the, 10509 w. pico blvd., rancho park, 3104757564, american, 573
manis bakery & espresso bar, 519 s. fairfax ave., la, 2139388800, desserts, 574
marthas, 22nd street grill 25 22nd, st. hermosa beach, 3103767786, american, 575
maxwells cafe, 13329 washington blvd., marina del rey, 3103067829, american, 576
michaels (los angeles), 1147 third st., santa monica, 3104510843, californian, 577
mishima, 8474 w. third st., la, 2137820181, noodle shops, 578
mo better meatty meat, 7261 melrose ave., la, 2139355280, hamburgers, 579
mulberry st., 17040 ventura blvd., encino, 8189068881, pizza, 580
ocean park cafe, 3117 ocean park blvd., santa monica, 3104525728, american, 581
ocean star, 145 n. atlantic blvd., monterey park, 8183082128, seafood, 582
original pantry bakery, 875 s. figueroa st. downtown, la, 2136276879, diners, 583
parkway grill, 510 s. arroyo pkwy., pasadena, 8187951001, californian, 584
pho hoa, 642 broadway, chinatown, 2136265530, vietnamese, 585
pinks famous chili dogs, 709 n. la brea ave., la, 2139314223, hot dogs, 586
poquito mas, 2635 w. olive ave., burbank, 8185632252, mexican, 587
r23, 923 e. third st., los angeles, 2136877178, japanese, 588
raes, 2901 pico blvd., santa monica, 3108287937, diners, 589
rubins red hots, 15322 ventura blvd., encino, 8189056515, hot dogs, 590
rubys (la), 45 s. fair oaks ave., pasadena, 8187967829, diners, 591
russells burgers, 1198 pch, seal beach, 3105969556, hamburgers, 592
ruths chris steak house (los angeles), 224 s. beverly dr., beverly hills, 3108598744, steakhouses, 593
shiro, 1505 mission st. s., pasadena, 8187994774, pacific new wave, 594
sushi nozawa, 11288 ventura blvd., studio city, 8185087017, japanese, 595
sweet lady jane, 8360 melrose ave., la, 2136537145, desserts, 596
taiko, 11677 san vicente blvd., brentwood, 3102077782, noodle shops, 597
tommys, 2575 beverly blvd., la, 2133899060, hamburgers, 598
uncle bills pancake house, 1305 highland ave., manhattan beach, 3105455177, diners, 599
water grill, 544 s. grand ave., los angeles, 2138910900, seafood, 600
zankou chicken, 1415 e. colorado st., glendale, 8182441937, middle eastern, 601
afghan kebab house, 764 ninth ave., new york city, 2123071612, afghan, 602
arcadia, 21 e. 62nd st., new york city, 2122232900, american (new), 603
bennys burritos, 93 ave. a, new york city, 2122542054, mexican, 604
cafe con leche, 424 amsterdam ave., new york city, 2125957000, cuban, 605
corner bistro, 331 w. fourth st., new york city, 2122429502, hamburgers, 606
cucina della fontana, 368 bleecker st., new york city, 2122420636, italian, 607
cucina di pesce, 87 e. fourth st., new york city, 2122606800, seafood, 608
darbar, 44 w. 56th st., new york city, 2124327227, indian, 609
ejs luncheonette, 432 sixth ave., new york city, 2124735555, diners, 610
edison cafe, 228 w. 47th st., new york city, 2128405000, diners, 611
elias corner, 2402 31st st., queens, 7189321510, greek, 612
good enough to eat, 483 amsterdam ave., new york city, 2124960163, american, 613
grays papaya, 2090 broadway, new york city, 2127990243, hot dogs, 614
il mulino, 86 w. third st., new york city, 2126733783, italian, 615
jackson diner, 3703 74th st., queens, 7186721232, indian, 616
joes shanghai, 9 pell st., queens, 7185393838, chinese, 617
johns pizzeria, 48 w. 65th st., new york city, 2127217001, pizza, 618
kelley & ping, 127 greene st., new york city, 2122281212, panasian, 619
kiev, 117 second ave., new york city, 2126744040, ukrainian, 620
kuruma zushi, 2nd fl., new york city, 2123172802, japanese, 621
la caridad, 2199 broadway, new york city, 2128742780, cuban, 622
la grenouille, 3 e. 52nd st., new york city, 2127521495, french (classic), 623
lemongrass grill, 61a seventh ave., brooklyn, 7183997100, thai, 624
lombardis, 32 spring st., new york city, 2129417994, pizza, 625
marnies noodle shop, 466 hudson st., new york city, 2127413214, asian, 626
menchankotei, 39 w. 55th st., new york city, 2122471585, japanese, 627
mitali eastwest, 296 bleecker st., new york city, 2129891367, indian, 628
monsoon (ny), 435 amsterdam ave., new york city, 2125808686, thai, 629
moustache, 405 atlantic ave., brooklyn, 7188525555, middle eastern, 630
nobu, 105 hudson st., new york city, 2122190500, japanese, 631
one if by land  tibs, 17 barrow st., new york city, 2122280822, continental, 632
oyster bar, lower level, new york city, 2124906650, seafood, 633
palm, 837 second ave., new york city, 2126872953, steakhouses, 634
palm too, 840 second ave., new york city, 2126975198, steakhouses, 635
patsys pizza, 19 old fulton st., brooklyn, 7188584300, pizza, 636
peter luger steak house, 178 broadway, brooklyn, 7183877400, steakhouses, 637
rose of india, 308 e. sixth st., new york city, 2125335011, indian, 638
sams noodle shop, 411 third ave., new york city, 2122132288, chinese, 639
sarabeths, 1295 madison ave., new york city, 2124107335, american, 640
sparks steak house, 210 e. 46th st., new york city, 2126874855, steakhouses, 641
stick to your ribs, 516 51st ave., queens, 7189373030, bbq, 642
sushisay, 38 e. 51st st., new york city, 2127551780, japanese, 643
sylvias, 328 lenox ave., new york city, 2129960660, southernsoul, 644
szechuan hunan cottage, 1588 york ave., new york city, 2125355223, chinese, 645
szechuan kitchen, 1460 first ave., new york city, 2122494615, chinese, 646
teresas, 80 montague st., queens, 7185202910, polish, 647
thai house cafe, 151 hudson st., new york city, 2123341085, thai, 648
thailand restaurant, 106 bayard st., new york city, 2123493132, thai, 649
veselka, 144 second ave., new york city, 2122289682, ukrainian, 650
westside cottage, 689 ninth ave., new york city, 2122450800, chinese, 651
windows on the world, 107th fl., new york city, 2125247000, eclectic, 652
wollenskys grill, 205 e. 49th st., new york city, 2127530444, steakhouses, 653
yama, 122 e. 17th st., new york city, 2124750969, japanese, 654
zarela, 953 second ave., new york city, 2126446740, mexican, 655
andres french restaurant, 401 s. 6th st., las vegas, 7023855016, french (classic), 656
buccaneer bay club, 3300 las vegas blvd. s., las vegas, 7028947350, continental, 657
buzios in the rio, 3700 w. flamingo rd., las vegas, 7022527697, seafood, 658
emerils new orleans fish house, 3799 las vegas blvd. s., las vegas, 7028917374, seafood, 659
fiore rotisserie & grille, 3700 w. flamingo rd., las vegas, 7022527702, italian, 660
hugos cellar, 202 e. fremont st., las vegas, 7023854011, continental, 661
madame chings, 3300 las vegas blvd. s., las vegas, 7028947111, asian, 662
mayflower cuisinier, 4750 w. sahara ave., las vegas, 7028708432, chinese, 663
michaels (las vegas), 3595 las vegas blvd. s., las vegas, 7027377111, continental, 664
monte carlo, 3145 las vegas blvd. s., las vegas, 7027334524, french (new), 665
moongate, 3400 las vegas blvd. s., las vegas, 7027917352, chinese, 666
mortons of chicago (las vegas), 3200 las vegas blvd. s., las vegas, 7028930703, steakhouses, 667
nicky blairs, 3925 paradise rd., las vegas, 7027929900, italian, 668
pieros restaurant, 355 convention center dr., las vegas, 7023692305, italian, 669
spago (las vegas), 3500 las vegas blvd. s., las vegas, 7023696300, californian, 670
steakhouse  the, 128 e. fremont st., las vegas, 7023821600, steakhouses, 671
stefanos, 129 fremont st., las vegas, 7023857111, italian, 672
sterling brunch, 3645 las vegas blvd. s., las vegas, 7027394651, eclectic, 673
tre visi, 3799 las vegas blvd. s., las vegas, 7028917331, italian, 674
103 west, 103 w. paces ferry rd., atlanta, 4042335993, continental, 675
alons at the terrace, 659 peachtree st., atlanta, 4047240444, sandwiches, 676
bakers cajun cafe, 1134 euclid ave., atlanta, 4042235039, cajuncreole, 677
barbecue kitchen, 1437 virginia ave., atlanta, 4047669906, bbq, 678
bistro  the, 56 e. andrews dr. nw, atlanta, 4042315733, french bistro, 679
bobby & junes kountry kitchen, 375 14th st., atlanta, 4048763872, southernsoul, 680
bradshaws restaurant, 2911 s. pharr court, atlanta, 4042617015, southernsoul, 681
brookhaven cafe, 4274 peachtree rd., atlanta, 4042315907, vegetarian, 682
cafe sunflower, 5975 roswell rd., atlanta, 4042561675, health food, 683
canoe, 4199 paces ferry rd., atlanta, 7704322663, american (new), 684
careys, 1021 cobb pkwy. se, marietta, 7704228042, hamburgers, 685
careys corner, 1215 powers ferry rd., marietta, 7709330909, hamburgers, 686
chops, 70 w. paces ferry rd., atlanta, 4042622675, steakhouses, 687
chopstix, 4279 roswell rd., atlanta, 4042554868, chinese, 688
deacon burtons soulfood restaurant, 1029 edgewood ave. se, atlanta, 4045231929, southernsoul, 689
eats, 600 ponce de leon ave., atlanta, 4048889149, italian, 690
flying biscuit  the, 1655 mclendon ave., atlanta, 4046878888, eclectic, 691
frijoleros, 1031 peachtree st. ne, atlanta, 4048928226, texmex, 692
greenwoods, 1087 green st., roswell, 7709925383, southernsoul, 693
harolds barbecue, 171 mcdonough blvd., atlanta, 4046279268, bbq, 694
havana sandwich shop, 2905 buford hwy., atlanta, 4046364094, cuban, 695
house of chan, 2469 cobb pkwy., smyrna, 7709559444, chinese, 696
indian delights, 3675 satellite blvd., duluth, 1008138212, indian, 697
java jive, 790 ponce de leon ave., atlanta, 4048766161, coffee shops, 698
johnny rockets (at), 2970 cobb pkwy., atlanta, 7709556068, american, 699
kalos coffee house, 1248 clairmont rd., decatur, 4043253733, coffeehouses, 700
la fonda latina, 4427 roswell rd., atlanta, 4043038201, spanish, 701
lettuce souprise you (at), 3525 mall blvd., duluth, 7704189969, cafeterias, 702
majestic, 1031 ponce de leon ave., atlanta, 4048750276, diners, 703
mortons of chicago (atlanta), 303 peachtree st. ne, atlanta, 4045774366, steakhouses, 704
my thai, 1248 clairmont rd., atlanta, 4046364280, thai, 705
nava, 3060 peachtree rd., atlanta, 4042401984, southwestern, 706
nuevo laredo cantina, 1495 chattahoochee ave. nw, atlanta, 4043529009, mexican, 707
original pancake house (at), 4330 peachtree rd., atlanta, 4042374116, american, 708
palm  the (atlanta), 3391 peachtree rd. ne, atlanta, 4048141955, steakhouses, 709
rainbow restaurant, 2118 n. decatur rd., decatur, 4046333538, vegetarian, 710
ritzcarlton cafe (atlanta), 181 peachtree st., atlanta, 4046590400, american (new), 711
riviera, 519 e. paces ferry rd., atlanta, 4042627112, mediterranean, 712
silver skillet  the, 200 14th st. nw, atlanta, 4048741388, coffee shops, 713
soto, 3330 piedmont rd., atlanta, 4042332005, japanese, 714
thelmas kitchen, 764 marietta st. nw, atlanta, 4046885855, cafeterias, 715
tortillas, 774 ponce de leon ave. ne, atlanta, 4048920193, texmex, 716
van goghs restaurant & bar, 70 w. crossville rd., roswell, 7709931156, american (new), 717
veggieland, 220 sandy springs circle, atlanta, 4042313111, vegetarian, 718
white house restaurant, 3172 peachtree rd. ne, atlanta, 4042377601, diners, 719
zabelee, 4837 old national hwy., college park, 4047682705, thai, 720
bills place, 2315 clement st., san francisco, 4152215262, hamburgers, 721
cafe flore, 2298 market st., san francisco, 4156218579, californian, 722
caffe greco, 423 columbus ave., san francisco, 4153976261, continental, 723
campo santo, 240 columbus ave., san francisco, 4154339623, mexican, 724
cha cha chas, 1805 haight st., san francisco, 4153865758, caribbean, 725
doidges, 2217 union st., san francisco, 4159212149, american, 726
dotties true blue cafe, 522 jones st., san francisco, 4158852767, diners, 727
dusit thai, 3221 mission st., san francisco, 4158264639, thai, 728
ebisu, 1283 ninth ave., san francisco, 4155661770, japanese, 729
emerald garden restaurant, 1550 california st., san francisco, 4156731155, vietnamese, 730
erics chinese restaurant, 1500 church st., san francisco, 4152820919, chinese, 731
hamburger marys, 1582 folsom st., san francisco, 4156261985, hamburgers, 732
kellys on trinity, 333 bush st., san francisco, 4153624454, californian, 733
la cumbre, 515 valencia st., san francisco, 4158638205, mexican, 734
la mediterranee, 288 noe st., san francisco, 4154317210, mediterranean, 735
la taqueria, 2889 mission st., san francisco, 4152857117, mexican, 736
marios bohemian cigar store cafe, 2209 polk st., san francisco, 4157768226, italian, 737
marnee thai, 2225 irving st., san francisco, 4156659500, thai, 738
mels drivein, 3355 geary st., san francisco, 4153872244, hamburgers, 739
mos burgers, 1322 grant st., san francisco, 4157883779, hamburgers, 740
phnom penh cambodian restaurant, 631 larkin st., san francisco, 4157755979, cambodian, 741
roosevelt tamale parlor, 2817 24th st., san francisco, 4155509213, mexican, 742
sallys cafe & bakery, 300 de haro st., san francisco, 4156266006, american, 743
san francisco bbq, 1328 18th st., san francisco, 4154318956, thai, 744
slanted door, 584 valencia st., san francisco, 4158618032, vietnamese, 745
swan oyster depot, 1517 polk st., san francisco, 4156731101, seafood, 746
thep phanom, 400 waller st., san francisco, 4154312526, thai, 747
ti couz, 3108 16th st., san francisco, 4152527373, french, 748
trio cafe, 1870 fillmore st., san francisco, 4155632248, american, 749
tu lan, 8 sixth st., san francisco, 4156260927, vietnamese, 750
vicolo pizzeria, 201 ivy st., san francisco, 4158632382, pizza, 751
wahaka oaxaca mexican grill, 2141 polk st., san francisco, 4157751055, mexican, 752
